CS1                     
1 49261U 21088B   26068.75173904  .00015722  00000+0  51176-3 0  9998
2 49261  97.3882 132.1684 0014129  78.0335 282.2490 15.31848439245182
STARLINK-35228          
1 65517U 25198AB  26068.82721041  .00020553  00000+0  70422-3 0  9998
2 65517  53.1587 270.1762 0001063  85.2428 274.8694 15.30196191 28645
